KUIPER-00130            
1 65959U 25228N   25317.62322488  .00065632  00000+0  18999-2 0  9995
2 65959  51.8788 160.8987 0005224 259.4350 100.6047 15.34964795  5942
KUIPER-00134            
1 65960U 25228P   25317.62500406  .00081048  00000+0  23418-2 0  9996
2 65960  51.8803 160.9082 0005391 258.3562 101.6818 15.34923110  5940
KUIPER-00135            
1 65961U 25228Q   25317.55951662  .00061898  00000+0  17934-2 0  9990
2 65961  51.8776 161.2309 0004279 248.2446 111.8085 15.34968000  5934
KUIPER-00136            
1 65962U 25228R   25317.55187127  .00060687  00000+0  17431-2 0  9995
2 65962  51.8769 161.1799 0003891 238.0767 121.9841 15.35249887  5939
KUIPER-00137            
1 65963U 25228S   25317.55898878  .00072068  00000+0  20933-2 0  9995
2 65963  51.8791 161.2275 0004435 257.3712 102.6778 15.34818338  5931
KUIPER-00138            
1 65964U 25228T   25317.30224419  .00060068  00000+0  17578-2 0  9991
2 65964  51.8759 162.4978 0004580 268.1864  91.8597 15.34666720  5897
KUIPER-00140            
1 65965U 25228U   25317.56391991  .00059080  00000+0  17401-2 0  9997
2 65965  51.8774 161.2561 0004737 266.1253  93.9191 15.34469958  5936
KUIPER-00141            
1 65966U 25228V   25317.61993558  .00058174  00000+0  16766-2 0  9997
2 65966  51.8791 160.8783 0005356 250.8853 109.1553 15.35157637  5943
KUIPER-00146            
1 65967U 25228W   25317.55615010  .00079506  00000+0  23048-2 0  9998
2 65967  51.8741 161.2092 0005174 252.5355 107.5065 15.34830426  5933
KUIPER-00149            
1 65968U 25228X   25317.61702684  .00081614  00000+0  23329-2 0  9995
2 65968  51.8790 160.8609 0005109 243.2364 116.8100 15.35259350  5948
KUIPER-00154            
1 65969U 25228Y   25317.61604730  .00057141  00000+0  16569-2 0  9995
2 65969  51.8782 160.8554 0005539 248.7551 111.2843 15.34972866  5940
KUIPER-00157            
1 65970U 25228Z   25317.56003993  .00103861  00000+0  30066-2 0  9994
2 65970  51.8806 161.2340 0005744 268.9960  91.0368 15.34735953  5933
